IRIDIUM 126             
1 42809U 17039G   25283.93550384  .00000117  00000+0  34645-4 0  9994
2 42809  86.3914  97.8518 0002323  91.0302 269.1160 14.34217196434227
IRIDIUM 124             
1 42810U 17039H   25283.39204115  .00000633  00000+0  18217-3 0  9993
2 42810  86.4521  34.7738 0002187  89.4978 270.6473 14.43281270439083
IRIDIUM 128             
1 42811U 17039J   25283.92623161  .00000232  00000+0  75639-4 0  9996
2 42811  86.3957 129.3836 0002061  74.5847 285.5576 14.34214665434254
IRIDIUM 121             
1 42812U 17039K   25283.95452464  .00000080  00000+0  21677-4 0  9990
2 42812  86.3917  97.8700 0001908  86.5353 273.6062 14.34218322434100
IRIDIUM 133             
1 42955U 17061A   25283.81841124  .00000049  00000+0  10402-4 0  9992
2 42955  86.3955 129.5403 0002149  85.8854 274.2587 14.34217519419030
IRIDIUM 100             
1 42956U 17061B   25283.32368905  .00000143  00000+0  43896-4 0  9998
2 42956  86.3951 129.6716 0002254  84.2383 275.9070 14.34218394418960
IRIDIUM 122             
1 42957U 17061C   25283.85012432  .00000148  00000+0  45653-4 0  9996
2 42957  86.3951 129.4511 0002203  84.5086 275.6361 14.34218466419049
IRIDIUM 129             
1 42958U 17061D   25283.80572072  .00000157  00000+0  48954-4 0  9990
2 42958  86.3952 129.5340 0002210  98.0195 262.1252 14.34216583419050
